GLOBALSTAR M068         
1 32266U 07048D   25212.25659050 -.00000097  00000+0  36806-4 0  9995
2 32266  51.9869 167.9175 0000675 241.8315 268.7739 12.62826329823126
GLOBALSTAR M079         
1 37188U 10054A   25212.60298325 -.00000099  00000+0  28016-4 0  9993
2 37188  52.0060   4.5771 0000970  79.7415 359.1595 12.62265571682061
GLOBALSTAR M074         
1 37189U 10054B   25212.53948377 -.00000105  00000+0 -69626-5 0  9997
2 37189  52.0038   4.0881 0000950 100.6669 287.9461 12.62266758682739
GLOBALSTAR M076         
1 37190U 10054C   25212.57615206 -.00000093  00000+0  58168-4 0  9998
2 37190  52.0050   4.1502 0001081  90.0169 346.0443 12.62264172682385
GLOBALSTAR M077         
1 37191U 10054D   25212.54864421 -.00000082  00000+0  12248-3 0  9997
2 37191  52.0093 321.1033 0000732 111.9060 260.3824 12.62322490682759
GLOBALSTAR M075         
1 37192U 10054E   25212.49726787 -.00000101  00000+0  17640-4 0  9998
2 37192  51.9957  46.6225 0000808  79.0042 298.7092 12.62266405681447
GLOBALSTAR M073         
1 37193U 10054F   25212.59554955 -.00000096  00000+0  41689-4 0  9999
2 37193  52.0082 320.1771 0000791 100.2297   4.9126 12.62261433683448
GLOBALSTAR M083         
1 37739U 11033A   25212.53963214 -.00000094  00000+0  52992-4 0  9996
2 37739  51.9850 269.0220 0000251 115.7924  32.8617 12.62260563652459
GLOBALSTAR M088         
1 37740U 11033B   25212.35660894 -.00000088  00000+0  85704-4 0  9996
2 37740  52.0196 175.2234 0000182  19.2425 138.5951 12.62267001647976
GLOBALSTAR M091         
1 37741U 11033C   25212.53089426 -.00000084  00000+0  11030-3 0  9999
2 37741  51.9991 138.1312 0000557  16.2574 154.7997 12.62269538648788
GLOBALSTAR M085         
1 37742U 11033D   25212.43835648 -.00000095  00000+0  50828-4 0  9995
2 37742  52.0127  89.4251 0000746  41.2238 129.5914 12.62263948649281
GLOBALSTAR M081         
1 37743U 11033E   25212.38616100 -.00000090  00000+0  77153-4 0  9995
2 37743  51.9959  92.3876 0000878  52.0669 119.8491 12.62267293649428
GLOBALSTAR M089         
1 37744U 11033F   25212.47388970 -.00000102  00000+0  84278-5 0  9998
2 37744  51.9939  46.3381 0001003  91.6121 300.2549 12.62265577650289
GLOBALSTAR M084         
1 38040U 11080A   25212.59373888 -.00000095  00000+0  51022-4 0  9996
2 38040  52.0004 273.2879 0000774 127.0770  28.9483 12.62267632628274
GLOBALSTAR M080         
1 38041U 11080B   25212.56315670 -.00000094  00000+0  51821-4 0  9995
2 38041  52.0056 274.9889 0000309 198.1457 308.1006 12.62267833628396
GLOBALSTAR M082         
1 38042U 11080C   25212.42058786 -.00000101  00000+0  17670-4 0  9996
2 38042  52.0049 230.8862 0000249 273.4602 235.5687 12.62267668629084
GLOBALSTAR M092         
1 38043U 11080D   25212.60208617 -.00000090  00000+0  77423-4 0  9996
2 38043  52.0104 320.7135 0000682 114.3617 259.4032 12.62265306627566
GLOBALSTAR M090         
1 38044U 11080E   25212.45031619 -.00000096  00000+0  42119-4 0  9996
2 38044  52.0096 224.6457 0000141  45.6159 119.3671 12.62261435629208
GLOBALSTAR M086         
1 38045U 11080F   25212.47546929 -.00000082  00000+0  11925-3 0  9999
2 38045  51.9869 225.0202 0001254  67.8205  93.2570 12.62275670629150
GLOBALSTAR M097         
1 39072U 13005A   25212.46683348 -.00000091  00000+0  69237-4 0  9995
2 39072  52.0039 139.6385 0000615  38.8407 321.2504 12.62265649576401
GLOBALSTAR M093         
1 39073U 13005B   25212.51964296 -.00000089  00000+0  82498-4 0  9997
2 39073  51.9805 132.7100 0000670  35.6310 324.4601 12.62266312576365
GLOBALSTAR M094         
1 39074U 13005C   25212.04473796 -.00000102  00000+0  11382-4 0  9996
2 39074  51.9966  48.5836 0000959  61.2537 298.8426 12.62263104577917
GLOBALSTAR M096         
1 39075U 13005D   25212.37457004 -.00000091  00000+0  73940-4 0  9992
2 39075  52.0073  96.1285 0000826  40.9454 319.1475 12.62266009576873
GLOBALSTAR M078         
1 39076U 13005E   25212.58585066 -.00000099  00000+0  28065-4 0  9992
2 39076  51.9851 179.9347 0000676 294.1432  65.9364 12.62259664575520
GLOBALSTAR M095         
1 39077U 13005F   25212.45350618 -.00000095  00000+0  49564-4 0  9995
2 39077  51.9780 177.5098 0000572 339.2345  20.8498 12.62268409575365
GLOBALSTAR M087         
1 52888U 22064A   25212.54803700 -.00000091  00000+0  71180-4 0  9995
2 52888  52.0016 318.6375 0000474 100.1417 259.9503 12.62259326150646
